[{"OBJECT_NAME":"METOP-B","OBJECT_ID":"2012-049A","EPOCH":"2026-03-15T06:53:55.418208","MEAN_MOTION":14.21446634,"ECCENTRICITY":0.00013449,"INCLINATION":98.663,"RA_OF_ASC_NODE":127.61,"ARG_OF_PERICENTER":236.188,"MEAN_ANOMALY":123.917,"EPHEMERIS_TYPE":0,"CLASSIFICATION_TYPE":"U","NORAD_CAT_ID":38771,"ELEMENT_SET_NO":999,"REV_AT_EPOCH":69992,"BSTAR":7.4204623e-5,"MEAN_MOTION_DOT":1.19e-6,"MEAN_MOTION_DDOT":0},{"OBJECT_NAME":"SARAL","OBJECT_ID":"2013-009A","EPOCH":"2026-03-15T06:10:49.125792","MEAN_MOTION":14.32830566,"ECCENTRICITY":0.00017969,"INCLINATION":98.5559,"RA_OF_ASC_NODE":262.0043,"ARG_OF_PERICENTER":165.4945,"MEAN_ANOMALY":194.6291,"EPHEMERIS_TYPE":0,"CLASSIFICATION_TYPE":"U","NORAD_CAT_ID":39086,"ELEMENT_SET_NO":999,"REV_AT_EPOCH":68215,"BSTAR":6.002735e-5,"MEAN_MOTION_DOT":1.2e-6,"MEAN_MOTION_DDOT":0},{"OBJECT_NAME":"METOP-C","OBJECT_ID":"2018-087A","EPOCH":"2026-03-15T05:47:22.481088","MEAN_MOTION":14.21498852,"ECCENTRICITY":0.00021866,"INCLINATION":98.6754,"RA_OF_ASC_NODE":135.5196,"ARG_OF_PERICENTER":92.2113,"MEAN_ANOMALY":267.9315,"EPHEMERIS_TYPE":0,"CLASSIFICATION_TYPE":"U","NORAD_CAT_ID":43689,"ELEMENT_SET_NO":999,"REV_AT_EPOCH":38148,"BSTAR":6.4931933e-5,"MEAN_MOTION_DOT":9.9e-7,"MEAN_MOTION_DDOT":0},{"OBJECT_NAME":"OTB-3-GAZELLE","OBJECT_ID":"2022-127A","EPOCH":"2026-03-15T05:16:50.194560","MEAN_MOTION":14.42638082,"ECCENTRICITY":0.00142996,"INCLINATION":98.3914,"RA_OF_ASC_NODE":67.3748,"ARG_OF_PERICENTER":110.3089,"MEAN_ANOMALY":249.9639,"EPHEMERIS_TYPE":0,"CLASSIFICATION_TYPE":"U","NORAD_CAT_ID":54023,"ELEMENT_SET_NO":999,"REV_AT_EPOCH":18081,"BSTAR":6.5137371e-5,"MEAN_MOTION_DOT":1.73e-6,"MEAN_MOTION_DDOT":0},{"OBJECT_NAME":"EOS-6 (OCEANSAT-3)","OBJECT_ID":"2022-158A","EPOCH":"2026-03-15T06:11:53.687328","MEAN_MOTION":14.47010662,"ECCENTRICITY":4.905e-5,"INCLINATION":98.3482,"RA_OF_ASC_NODE":173.7296,"ARG_OF_PERICENTER":167.6022,"MEAN_ANOMALY":192.5183,"EPHEMERIS_TYPE":0,"CLASSIFICATION_TYPE":"U","NORAD_CAT_ID":54361,"ELEMENT_SET_NO":999,"REV_AT_EPOCH":17425,"BSTAR":0.00011349603,"MEAN_MOTION_DOT":3.69e-6,"MEAN_MOTION_DDOT":0},{"OBJECT_NAME":"KINEIS-1B","OBJECT_ID":"2024-114A","EPOCH":"2026-03-15T07:30:33.187104","MEAN_MOTION":14.80434675,"ECCENTRICITY":0.00035333,"INCLINATION":97.992,"RA_OF_ASC_NODE":98.9233,"ARG_OF_PERICENTER":61.5272,"MEAN_ANOMALY":298.6296,"EPHEMERIS_TYPE":0,"CLASSIFICATION_TYPE":"U","NORAD_CAT_ID":60079,"ELEMENT_SET_NO":999,"REV_AT_EPOCH":9351,"BSTAR":0.00017902827,"MEAN_MOTION_DOT":1.315e-5,"MEAN_MOTION_DDOT":0},{"OBJECT_NAME":"KINEIS-1C","OBJECT_ID":"2024-114C","EPOCH":"2026-03-15T06:41:51.516672","MEAN_MOTION":14.80423156,"ECCENTRICITY":0.00023987,"INCLINATION":97.9939,"RA_OF_ASC_NODE":98.7162,"ARG_OF_PERICENTER":110.0652,"MEAN_ANOMALY":250.0818,"EPHEMERIS_TYPE":0,"CLASSIFICATION_TYPE":"U","NORAD_CAT_ID":60081,"ELEMENT_SET_NO":999,"REV_AT_EPOCH":9348,"BSTAR":0.00015707469,"MEAN_MOTION_DOT":1.147e-5,"MEAN_MOTION_DDOT":0},{"OBJECT_NAME":"KINEIS-1D","OBJECT_ID":"2024-114D","EPOCH":"2026-03-15T07:12:05.615136","MEAN_MOTION":14.76124454,"ECCENTRICITY":0.00026885,"INCLINATION":97.9964,"RA_OF_ASC_NODE":95.4368,"ARG_OF_PERICENTER":115.0007,"MEAN_ANOMALY":245.1482,"EPHEMERIS_TYPE":0,"CLASSIFICATION_TYPE":"U","NORAD_CAT_ID":60082,"ELEMENT_SET_NO":999,"REV_AT_EPOCH":9327,"BSTAR":0.00012173112,"MEAN_MOTION_DOT":7.9e-6,"MEAN_MOTION_DDOT":0},{"OBJECT_NAME":"KINEIS-1E","OBJECT_ID":"2024-114E","EPOCH":"2026-03-15T05:28:44.077152","MEAN_MOTION":14.80459299,"ECCENTRICITY":0.00024005,"INCLINATION":97.989,"RA_OF_ASC_NODE":98.7457,"ARG_OF_PERICENTER":85.1269,"MEAN_ANOMALY":275.0217,"EPHEMERIS_TYPE":0,"CLASSIFICATION_TYPE":"U","NORAD_CAT_ID":60083,"ELEMENT_SET_NO":999,"REV_AT_EPOCH":9348,"BSTAR":0.00041443511,"MEAN_MOTION_DOT":3.117e-5,"MEAN_MOTION_DDOT":0},{"OBJECT_NAME":"KINEIS-1A","OBJECT_ID":"2024-114F","EPOCH":"2026-03-15T07:54:39.573216","MEAN_MOTION":14.80462373,"ECCENTRICITY":0.00047935,"INCLINATION":97.9897,"RA_OF_ASC_NODE":98.9699,"ARG_OF_PERICENTER":80.9539,"MEAN_ANOMALY":279.2215,"EPHEMERIS_TYPE":0,"CLASSIFICATION_TYPE":"U","NORAD_CAT_ID":60084,"ELEMENT_SET_NO":999,"REV_AT_EPOCH":9350,"BSTAR":0.00029396742,"MEAN_MOTION_DOT":2.196e-5,"MEAN_MOTION_DDOT":0},{"OBJECT_NAME":"KINEIS-3C","OBJECT_ID":"2024-172A","EPOCH":"2026-03-15T05:13:32.077632","MEAN_MOTION":14.72347798,"ECCENTRICITY":0.00034451,"INCLINATION":98.029,"RA_OF_ASC_NODE":165.1521,"ARG_OF_PERICENTER":89.1609,"MEAN_ANOMALY":270.9993,"EPHEMERIS_TYPE":0,"CLASSIFICATION_TYPE":"U","NORAD_CAT_ID":61220,"ELEMENT_SET_NO":999,"REV_AT_EPOCH":7924,"BSTAR":0.00038916383,"MEAN_MOTION_DOT":2.413e-5,"MEAN_MOTION_DDOT":0},{"OBJECT_NAME":"KINEIS-3D","OBJECT_ID":"2024-172B","EPOCH":"2026-03-15T05:03:56.102400","MEAN_MOTION":14.72351547,"ECCENTRICITY":0.00025512,"INCLINATION":98.0293,"RA_OF_ASC_NODE":165.1569,"ARG_OF_PERICENTER":97.7714,"MEAN_ANOMALY":262.3783,"EPHEMERIS_TYPE":0,"CLASSIFICATION_TYPE":"U","NORAD_CAT_ID":61221,"ELEMENT_SET_NO":999,"REV_AT_EPOCH":7952,"BSTAR":0.00038371752,"MEAN_MOTION_DOT":2.379e-5,"MEAN_MOTION_DDOT":0},{"OBJECT_NAME":"KINEIS-3E","OBJECT_ID":"2024-172C","EPOCH":"2026-03-15T06:17:20.419296","MEAN_MOTION":14.72338881,"ECCENTRICITY":0.00016222,"INCLINATION":98.0288,"RA_OF_ASC_NODE":165.2017,"ARG_OF_PERICENTER":101.1685,"MEAN_ANOMALY":258.9705,"EPHEMERIS_TYPE":0,"CLASSIFICATION_TYPE":"U","NORAD_CAT_ID":61222,"ELEMENT_SET_NO":999,"REV_AT_EPOCH":7953,"BSTAR":0.00037520779,"MEAN_MOTION_DOT":2.324e-5,"MEAN_MOTION_DDOT":0},{"OBJECT_NAME":"KINEIS-3A","OBJECT_ID":"2024-172D","EPOCH":"2026-03-14T16:49:53.699808","MEAN_MOTION":14.7225652,"ECCENTRICITY":0.00024484,"INCLINATION":98.0337,"RA_OF_ASC_NODE":164.7379,"ARG_OF_PERICENTER":59.0213,"MEAN_ANOMALY":301.1235,"EPHEMERIS_TYPE":0,"CLASSIFICATION_TYPE":"U","NORAD_CAT_ID":61223,"ELEMENT_SET_NO":999,"REV_AT_EPOCH":7887,"BSTAR":0.00043366785,"MEAN_MOTION_DOT":2.689e-5,"MEAN_MOTION_DDOT":0},{"OBJECT_NAME":"KINEIS-3B","OBJECT_ID":"2024-172E","EPOCH":"2026-03-15T05:28:33.017952","MEAN_MOTION":14.72319773,"ECCENTRICITY":0.00031257,"INCLINATION":98.0278,"RA_OF_ASC_NODE":165.2893,"ARG_OF_PERICENTER":48.7175,"MEAN_ANOMALY":311.4301,"EPHEMERIS_TYPE":0,"CLASSIFICATION_TYPE":"U","NORAD_CAT_ID":61224,"ELEMENT_SET_NO":999,"REV_AT_EPOCH":7952,"BSTAR":0.00036737696,"MEAN_MOTION_DOT":2.274e-5,"MEAN_MOTION_DDOT":0},{"OBJECT_NAME":"KINEIS-5C","OBJECT_ID":"2024-219A","EPOCH":"2026-03-15T06:32:14.748288","MEAN_MOTION":14.72380403,"ECCENTRICITY":0.00024291,"INCLINATION":97.9561,"RA_OF_ASC_NODE":235.6109,"ARG_OF_PERICENTER":124.1476,"MEAN_ANOMALY":235.9963,"EPHEMERIS_TYPE":0,"CLASSIFICATION_TYPE":"U","NORAD_CAT_ID":62081,"ELEMENT_SET_NO":999,"REV_AT_EPOCH":6993,"BSTAR":0.00017947872,"MEAN_MOTION_DOT":1.088e-5,"MEAN_MOTION_DDOT":0},{"OBJECT_NAME":"KINEIS-5D","OBJECT_ID":"2024-219B","EPOCH":"2026-03-15T05:43:29.602848","MEAN_MOTION":14.72359558,"ECCENTRICITY":0.0001783,"INCLINATION":97.9501,"RA_OF_ASC_NODE":235.5515,"ARG_OF_PERICENTER":135.8053,"MEAN_ANOMALY":224.3298,"EPHEMERIS_TYPE":0,"CLASSIFICATION_TYPE":"U","NORAD_CAT_ID":62082,"ELEMENT_SET_NO":999,"REV_AT_EPOCH":6993,"BSTAR":0.00018945019,"MEAN_MOTION_DOT":1.15e-5,"MEAN_MOTION_DDOT":0}]
