METOP-B                 
1 38771U 12049A   26074.28744697  .00000119  00000+0  74205-4 0  9990
2 38771  98.6630 127.6100 0001344 236.1880 123.9170 14.21446634699920
SARAL                   
1 39086U 13009A   26074.25751303  .00000120  00000+0  60027-4 0  9995
2 39086  98.5559 262.0043 0001796 165.4945 194.6291 14.32830566682155
METOP-C                 
1 43689U 18087A   26074.24123242  .00000099  00000+0  64932-4 0  9998
2 43689  98.6754 135.5196 0002186  92.2113 267.9315 14.21498852381487
OTB-3-GAZELLE           
1 54023U 22127A   26074.22002540  .00000173  00000+0  65137-4 0  9998
2 54023  98.3914  67.3748 0014299 110.3089 249.9639 14.42638082180810
EOS-6 (OCEANSAT-3)      
1 54361U 22158A   26074.25826027  .00000369  00000+0  11350-3 0  9998
2 54361  98.3482 173.7296 0000490 167.6022 192.5183 14.47010662174256
KINEIS-1B               
1 60079U 24114A   26074.31288411  .00001315  00000+0  17903-3 0  9993
2 60079  97.9920  98.9233 0003533  61.5272 298.6296 14.80434675 93513
KINEIS-1C               
1 60081U 24114C   26074.27906848  .00001147  00000+0  15707-3 0  9995
2 60081  97.9939  98.7162 0002398 110.0652 250.0818 14.80423156 93485
KINEIS-1D               
1 60082U 24114D   26074.30006499  .00000790  00000+0  12173-3 0  9990
2 60082  97.9964  95.4368 0002688 115.0007 245.1482 14.76124454 93270
KINEIS-1E               
1 60083U 24114E   26074.22828793  .00003117  00000+0  41444-3 0  9990
2 60083  97.9890  98.7457 0002400  85.1269 275.0217 14.80459299 93487
KINEIS-1A               
1 60084U 24114F   26074.32962469  .00002196  00000+0  29397-3 0  9990
2 60084  97.9897  98.9699 0004793  80.9539 279.2215 14.80462373 93509
KINEIS-3C               
1 61220U 24172A   26074.21773238  .00002413  00000+0  38916-3 0  9998
2 61220  98.0290 165.1521 0003445  89.1609 270.9993 14.72347798 79244
KINEIS-3D               
1 61221U 24172B   26074.21106600  .00002379  00000+0  38372-3 0  9999
2 61221  98.0293 165.1569 0002551  97.7714 262.3783 14.72351547 79529
KINEIS-3E               
1 61222U 24172C   26074.26204189  .00002324  00000+0  37521-3 0  9991
2 61222  98.0288 165.2017 0001622 101.1685 258.9705 14.72338881 79530
KINEIS-3A               
1 61223U 24172D   26073.70131597  .00002689  00000+0  43367-3 0  9991
2 61223  98.0337 164.7379 0002448  59.0213 301.1235 14.72256520 78870
KINEIS-3B               
1 61224U 24172E   26074.22815993  .00002274  00000+0  36738-3 0  9993
2 61224  98.0278 165.2893 0003125  48.7175 311.4301 14.72319773 79528
KINEIS-5C               
1 62081U 24219A   26074.27239292  .00001088  00000+0  17948-3 0  9998
2 62081  97.9561 235.6109 0002429 124.1476 235.9963 14.72380403 69930
KINEIS-5D               
1 62082U 24219B   26074.23853707  .00001150  00000+0  18945-3 0  9996
2 62082  97.9501 235.5515 0001783 135.8053 224.3298 14.72359558 69937
